<?xml version="1.0" encoding="UTF-8"?>
<ndm xmlns:xsi="http://www.w3.org/2001/XMLSchema-instance" xsi:noNamespaceSchemaLocation="https://sanaregistry.org/r/ndmxml_unqualified/ndmxml-2.0.0-master-2.0.xsd">
<omm id="CCSDS_OMM_VERS" version="2.0">
<header><CREATION_DATE/><ORIGINATOR/></header><body><segment><metadata><OBJECT_NAME>KUIPER-00157</OBJECT_NAME><OBJECT_ID>2025-228Z</OBJECT_ID><CENTER_NAME>EARTH</CENTER_NAME><REF_FRAME>TEME</REF_FRAME><TIME_SYSTEM>UTC</TIME_SYSTEM><MEAN_ELEMENT_THEORY>SGP4</MEAN_ELEMENT_THEORY></metadata><data><meanElements><EPOCH>2025-12-30T05:18:06.434784</EPOCH><MEAN_MOTION>15.36803730</MEAN_MOTION><ECCENTRICITY>.00075655</ECCENTRICITY><INCLINATION>51.8806</INCLINATION><RA_OF_ASC_NODE>296.2289</RA_OF_ASC_NODE><ARG_OF_PERICENTER>93.9128</ARG_OF_PERICENTER><MEAN_ANOMALY>266.2724</MEAN_ANOMALY></meanElements><tleParameters><EPHEMERIS_TYPE>0</EPHEMERIS_TYPE><CLASSIFICATION_TYPE>U</CLASSIFICATION_TYPE><NORAD_CAT_ID>65970</NORAD_CAT_ID><ELEMENT_SET_NO>999</ELEMENT_SET_NO><REV_AT_EPOCH>1310</REV_AT_EPOCH><BSTAR>.14073647E-2</BSTAR><MEAN_MOTION_DOT>.51408E-3</MEAN_MOTION_DOT><MEAN_MOTION_DDOT>0</MEAN_MOTION_DDOT></tleParameters></data></segment></body></omm>
<omm id="CCSDS_OMM_VERS" version="2.0">
<header><CREATION_DATE/><ORIGINATOR/></header><body><segment><metadata><OBJECT_NAME>KUIPER-00144</OBJECT_NAME><OBJECT_ID>2025-301A</OBJECT_ID><CENTER_NAME>EARTH</CENTER_NAME><REF_FRAME>TEME</REF_FRAME><TIME_SYSTEM>UTC</TIME_SYSTEM><MEAN_ELEMENT_THEORY>SGP4</MEAN_ELEMENT_THEORY></metadata><data><meanElements><EPOCH>2025-12-30T17:37:38.703072</EPOCH><MEAN_MOTION>15.35661785</MEAN_MOTION><ECCENTRICITY>.00064904</ECCENTRICITY><INCLINATION>51.8706</INCLINATION><RA_OF_ASC_NODE>38.3575</RA_OF_ASC_NODE><ARG_OF_PERICENTER>134.6208</ARG_OF_PERICENTER><MEAN_ANOMALY>225.5308</MEAN_ANOMALY></meanElements><tleParameters><EPHEMERIS_TYPE>0</EPHEMERIS_TYPE><CLASSIFICATION_TYPE>U</CLASSIFICATION_TYPE><NORAD_CAT_ID>67133</NORAD_CAT_ID><ELEMENT_SET_NO>999</ELEMENT_SET_NO><REV_AT_EPOCH>313</REV_AT_EPOCH><BSTAR>.56224636E-3</BSTAR><MEAN_MOTION_DOT>.19473E-3</MEAN_MOTION_DOT><MEAN_MOTION_DDOT>0</MEAN_MOTION_DDOT></tleParameters></data></segment></body></omm>
<omm id="CCSDS_OMM_VERS" version="2.0">
<header><CREATION_DATE/><ORIGINATOR/></header><body><segment><metadata><OBJECT_NAME>KUIPER-00164</OBJECT_NAME><OBJECT_ID>2025-301B</OBJECT_ID><CENTER_NAME>EARTH</CENTER_NAME><REF_FRAME>TEME</REF_FRAME><TIME_SYSTEM>UTC</TIME_SYSTEM><MEAN_ELEMENT_THEORY>SGP4</MEAN_ELEMENT_THEORY></metadata><data><meanElements><EPOCH>2025-12-30T15:54:22.635072</EPOCH><MEAN_MOTION>15.36339454</MEAN_MOTION><ECCENTRICITY>.00033018</ECCENTRICITY><INCLINATION>51.8725</INCLINATION><RA_OF_ASC_NODE>38.6285</RA_OF_ASC_NODE><ARG_OF_PERICENTER>113.8089</ARG_OF_PERICENTER><MEAN_ANOMALY>246.3243</MEAN_ANOMALY></meanElements><tleParameters><EPHEMERIS_TYPE>0</EPHEMERIS_TYPE><CLASSIFICATION_TYPE>U</CLASSIFICATION_TYPE><NORAD_CAT_ID>67134</NORAD_CAT_ID><ELEMENT_SET_NO>999</ELEMENT_SET_NO><REV_AT_EPOCH>330</REV_AT_EPOCH><BSTAR>.14523215E-2</BSTAR><MEAN_MOTION_DOT>.52242E-3</MEAN_MOTION_DOT><MEAN_MOTION_DDOT>0</MEAN_MOTION_DDOT></tleParameters></data></segment></body></omm>
<omm id="CCSDS_OMM_VERS" version="2.0">
<header><CREATION_DATE/><ORIGINATOR/></header><body><segment><metadata><OBJECT_NAME>KUIPER-00175</OBJECT_NAME><OBJECT_ID>2025-301C</OBJECT_ID><CENTER_NAME>EARTH</CENTER_NAME><REF_FRAME>TEME</REF_FRAME><TIME_SYSTEM>UTC</TIME_SYSTEM><MEAN_ELEMENT_THEORY>SGP4</MEAN_ELEMENT_THEORY></metadata><data><meanElements><EPOCH>2025-12-30T17:21:34.149888</EPOCH><MEAN_MOTION>15.36786022</MEAN_MOTION><ECCENTRICITY>.00021147</ECCENTRICITY><INCLINATION>51.8739</INCLINATION><RA_OF_ASC_NODE>38.2793</RA_OF_ASC_NODE><ARG_OF_PERICENTER>77.0372</ARG_OF_PERICENTER><MEAN_ANOMALY>283.0850</MEAN_ANOMALY></meanElements><tleParameters><EPHEMERIS_TYPE>0</EPHEMERIS_TYPE><CLASSIFICATION_TYPE>U</CLASSIFICATION_TYPE><NORAD_CAT_ID>67135</NORAD_CAT_ID><ELEMENT_SET_NO>999</ELEMENT_SET_NO><REV_AT_EPOCH>320</REV_AT_EPOCH><BSTAR>.12641443E-2</BSTAR><MEAN_MOTION_DOT>.46043E-3</MEAN_MOTION_DOT><MEAN_MOTION_DDOT>0</MEAN_MOTION_DDOT></tleParameters></data></segment></body></omm>
<omm id="CCSDS_OMM_VERS" version="2.0">
<header><CREATION_DATE/><ORIGINATOR/></header><body><segment><metadata><OBJECT_NAME>KUIPER-00179</OBJECT_NAME><OBJECT_ID>2025-301D</OBJECT_ID><CENTER_NAME>EARTH</CENTER_NAME><REF_FRAME>TEME</REF_FRAME><TIME_SYSTEM>UTC</TIME_SYSTEM><MEAN_ELEMENT_THEORY>SGP4</MEAN_ELEMENT_THEORY></metadata><data><meanElements><EPOCH>2025-12-30T17:25:52.193856</EPOCH><MEAN_MOTION>15.36360229</MEAN_MOTION><ECCENTRICITY>.00034018</ECCENTRICITY><INCLINATION>51.8733</INCLINATION><RA_OF_ASC_NODE>38.3015</RA_OF_ASC_NODE><ARG_OF_PERICENTER>89.8416</ARG_OF_PERICENTER><MEAN_ANOMALY>270.2960</MEAN_ANOMALY></meanElements><tleParameters><EPHEMERIS_TYPE>0</EPHEMERIS_TYPE><CLASSIFICATION_TYPE>U</CLASSIFICATION_TYPE><NORAD_CAT_ID>67136</NORAD_CAT_ID><ELEMENT_SET_NO>999</ELEMENT_SET_NO><REV_AT_EPOCH>331</REV_AT_EPOCH><BSTAR>.13091988E-2</BSTAR><MEAN_MOTION_DOT>.47055E-3</MEAN_MOTION_DOT><MEAN_MOTION_DDOT>0</MEAN_MOTION_DDOT></tleParameters></data></segment></body></omm>
<omm id="CCSDS_OMM_VERS" version="2.0">
<header><CREATION_DATE/><ORIGINATOR/></header><body><segment><metadata><OBJECT_NAME>KUIPER-00181</OBJECT_NAME><OBJECT_ID>2025-301E</OBJECT_ID><CENTER_NAME>EARTH</CENTER_NAME><REF_FRAME>TEME</REF_FRAME><TIME_SYSTEM>UTC</TIME_SYSTEM><MEAN_ELEMENT_THEORY>SGP4</MEAN_ELEMENT_THEORY></metadata><data><meanElements><EPOCH>2025-12-30T17:51:47.740320</EPOCH><MEAN_MOTION>15.34567209</MEAN_MOTION><ECCENTRICITY>.00104931</ECCENTRICITY><INCLINATION>51.8648</INCLINATION><RA_OF_ASC_NODE>38.4181</RA_OF_ASC_NODE><ARG_OF_PERICENTER>158.1600</ARG_OF_PERICENTER><MEAN_ANOMALY>201.9835</MEAN_ANOMALY></meanElements><tleParameters><EPHEMERIS_TYPE>0</EPHEMERIS_TYPE><CLASSIFICATION_TYPE>U</CLASSIFICATION_TYPE><NORAD_CAT_ID>67137</NORAD_CAT_ID><ELEMENT_SET_NO>999</ELEMENT_SET_NO><REV_AT_EPOCH>329</REV_AT_EPOCH><BSTAR>.10787279E-2</BSTAR><MEAN_MOTION_DOT>.36533E-3</MEAN_MOTION_DOT><MEAN_MOTION_DDOT>0</MEAN_MOTION_DDOT></tleParameters></data></segment></body></omm>
<omm id="CCSDS_OMM_VERS" version="2.0">
<header><CREATION_DATE/><ORIGINATOR/></header><body><segment><metadata><OBJECT_NAME>KUIPER-00183</OBJECT_NAME><OBJECT_ID>2025-301F</OBJECT_ID><CENTER_NAME>EARTH</CENTER_NAME><REF_FRAME>TEME</REF_FRAME><TIME_SYSTEM>UTC</TIME_SYSTEM><MEAN_ELEMENT_THEORY>SGP4</MEAN_ELEMENT_THEORY></metadata><data><meanElements><EPOCH>2025-12-30T17:56:11.940288</EPOCH><MEAN_MOTION>15.34290161</MEAN_MOTION><ECCENTRICITY>.00109276</ECCENTRICITY><INCLINATION>51.8629</INCLINATION><RA_OF_ASC_NODE>38.4360</RA_OF_ASC_NODE><ARG_OF_PERICENTER>160.7184</ARG_OF_PERICENTER><MEAN_ANOMALY>199.4216</MEAN_ANOMALY></meanElements><tleParameters><EPHEMERIS_TYPE>0</EPHEMERIS_TYPE><CLASSIFICATION_TYPE>U</CLASSIFICATION_TYPE><NORAD_CAT_ID>67138</NORAD_CAT_ID><ELEMENT_SET_NO>999</ELEMENT_SET_NO><REV_AT_EPOCH>330</REV_AT_EPOCH><BSTAR>.91661973E-3</BSTAR><MEAN_MOTION_DOT>.30691E-3</MEAN_MOTION_DOT><MEAN_MOTION_DDOT>0</MEAN_MOTION_DDOT></tleParameters></data></segment></body></omm>
<omm id="CCSDS_OMM_VERS" version="2.0">
<header><CREATION_DATE/><ORIGINATOR/></header><body><segment><metadata><OBJECT_NAME>KUIPER-00184</OBJECT_NAME><OBJECT_ID>2025-301G</OBJECT_ID><CENTER_NAME>EARTH</CENTER_NAME><REF_FRAME>TEME</REF_FRAME><TIME_SYSTEM>UTC</TIME_SYSTEM><MEAN_ELEMENT_THEORY>SGP4</MEAN_ELEMENT_THEORY></metadata><data><meanElements><EPOCH>2025-12-30T17:50:43.005984</EPOCH><MEAN_MOTION>15.34598982</MEAN_MOTION><ECCENTRICITY>.00091163</ECCENTRICITY><INCLINATION>51.8639</INCLINATION><RA_OF_ASC_NODE>38.4126</RA_OF_ASC_NODE><ARG_OF_PERICENTER>156.3896</ARG_OF_PERICENTER><MEAN_ANOMALY>203.7509</MEAN_ANOMALY></meanElements><tleParameters><EPHEMERIS_TYPE>0</EPHEMERIS_TYPE><CLASSIFICATION_TYPE>U</CLASSIFICATION_TYPE><NORAD_CAT_ID>67139</NORAD_CAT_ID><ELEMENT_SET_NO>999</ELEMENT_SET_NO><REV_AT_EPOCH>341</REV_AT_EPOCH><BSTAR>.11039256E-2</BSTAR><MEAN_MOTION_DOT>.37422E-3</MEAN_MOTION_DOT><MEAN_MOTION_DDOT>0</MEAN_MOTION_DDOT></tleParameters></data></segment></body></omm>

</ndm>
